ONEWEB-0435             
1 51632U 22012L   25029.54152081 -.00000469  00000+0 -13806-2 0  9998
2 51632  87.8912 136.6387 0001924 122.9120 237.2193 13.10370281143350
ONEWEB-0436             
1 51633U 22012M   25029.67946181  .00000036  00000+0  59529-4 0  9997
2 51633  87.9076 106.1654 0002028 110.9634 249.1715 13.17650552148665
ONEWEB-0438             
1 51634U 22012N   25029.52493149  .00000373  00000+0  10324-2 0  9995
2 51634  87.8916 136.6431 0001584 106.3034 253.8268 13.10369255143387
ONEWEB-0439             
1 51635U 22012P   25029.52825254  .00000162  00000+0  42782-3 0  9992
2 51635  87.8916 136.6296 0001666 109.0429 251.0879 13.10369726143365
ONEWEB-0442             
1 51636U 22012Q   25029.44407260  .00000074  00000+0  15705-3 0  9994
2 51636  87.9083 106.2548 0001764  82.5822 277.5510 13.17650244147337
ONEWEB-0443             
1 51637U 22012R   25029.23567205  .00000016  00000+0  90225-5 0  9996
2 51637  87.9082 106.3082 0001523 104.0926 256.0375 13.17649772147356
ONEWEB-0444             
1 51638U 22012S   25029.51829848  .00000634  00000+0  17813-2 0  9997
2 51638  87.8915 136.6421 0001628 111.7774 248.3527 13.10371748143375
ONEWEB-0445             
1 51639U 22012T   25029.53986253 -.00000421  00000+0 -12428-2 0  9997
2 51639  87.8906 136.5983 0001823 102.8295 257.3036 13.10371476143388
